{"type": "FeatureCollection", "features": [ {"type": "Feature", "properties": {"norad_id": 34962, "name": "COSMOS 2251 DEB", "group": "cosmos-2251-debris", "lat": 36.12553152796987, "lon": -7.891280242728332, "alt_km": 746.2334222233221, "timestamp": "2025-12-17T15:50:10.177446+00:00", "meta": {"OBJECT_NAME": "COSMOS 2251 DEB", "OBJECT_ID": "1993-036AER", "EPOCH": "2025-12-16T14:16:58.944288", "MEAN_MOTION": 14.4652884, "ECCENTRICITY": 0.0018797, "INCLINATION": 74.029, "RA_OF_ASC_NODE": 186.1625, "ARG_OF_PERICENTER": 299.0905, "MEAN_ANOMALY": 60.8371, "EPHEMERIS_TYPE": 0, "CLASSIFICATION_TYPE": "U", "NORAD_CAT_ID": 34962, "ELEMENT_SET_NO": 999, "REV_AT_EPOCH": 87634, "BSTAR": 0.00032902172, "MEAN_MOTION_DOT": 1.16e-05, "MEAN_MOTION_DDOT": 0}, "tle": {"line1": "1 34962U 93036AER 25350.59512667  .00001160  00000+0  32902-3 0  9997", "line2": "2 34962  74.0290 186.1625 0018797 299.0905  60.8371 14.46528840876348"}}, "geometry": {"type": "Point", "coordinates": [-7.891280242728332, 36.12553152796987]}}, {"type": "Feature", "properties": {"norad_id": 34963, "name": "COSMOS 2251 DEB", "group": "cosmos-2251-debris", "lat": 55.58062668811307, "lon": -170.89147272269923, "alt_km": 725.6279016186918, "timestamp": "2025-12-17T15:50:10.177457+00:00", "meta": {"OBJECT_NAME": "COSMOS 2251 DEB", "OBJECT_ID": "1993-036AES", "EPOCH": "2025-12-16T12:48:14.279904", "MEAN_MOTION": 14.51120475, "ECCENTRICITY": 0.00424377, "INCLINATION": 74.1721, "RA_OF_ASC_NODE": 35.6659, "ARG_OF_PERICENTER": 231.5501, "MEAN_ANOMALY": 128.1849, "EPHEMERIS_TYPE": 0, "CLASSIFICATION_TYPE": "U", "NORAD_CAT_ID": 34963, "ELEMENT_SET_NO": 999, "REV_AT_EPOCH": 86856, "BSTAR": 0.00092647557, "MEAN_MOTION_DOT": 3.691e-05, "MEAN_MOTION_DDOT": 0}, "tle": {"line1": "1 34963U 93036AES 25350.53349861  .00003691  00000+0  92648-3 0  9990", "line2": "2 34963  74.1721  35.6659 0042437 231.5501 128.1849 14.51120475868566"}}, "geometry": {"type": "Point", "coordinates": [-170.89147272269923, 55.58062668811307]}}, {"type": "Feature", "properties": {"norad_id": 34964, "name": "COSMOS 2251 DEB", "group": "cosmos-2251-debris", "lat": -29.845377119167118, "lon": -30.216653218189148, "alt_km": 999.2193045175454, "timestamp": "2025-12-17T15:50:10.177467+00:00", "meta": {"OBJECT_NAME": "COSMOS 2251 DEB", "OBJECT_ID": "1993-036AET", "EPOCH": "2025-12-16T07:25:11.963136", "MEAN_MOTION": 14.00622225, "ECCENTRICITY": 0.02124895, "INCLINATION": 73.9715, "RA_OF_ASC_NODE": 341.6266, "ARG_OF_PERICENTER": 199.3013, "MEAN_ANOMALY": 159.9987, "EPHEMERIS_TYPE": 0, "CLASSIFICATION_TYPE": "U", "NORAD_CAT_ID": 34964, "ELEMENT_SET_NO": 999, "REV_AT_EPOCH": 84528, "BSTAR": 0.00096810402, "MEAN_MOTION_DOT": 1.727e-05, "MEAN_MOTION_DDOT": 0}, "tle": {"line1": "1 34964U 93036AET 25350.30916624  .00001727  00000+0  96810-3 0  9996", "line2": "2 34964  73.9715 341.6266 0212489 199.3013 159.9987 14.00622225845289"}}, "geometry": {"type": "Point", "coordinates": [-30.216653218189148, -29.845377119167118]}}, {"type": "Feature", "properties": {"norad_id": 34965, "name": "COSMOS 2251 DEB", "group": "cosmos-2251-debris", "lat": 11.627736030318388, "lon": -64.11719105327468, "alt_km": 726.8931564040131, "timestamp": "2025-12-17T15:50:10.177478+00:00", "meta": {"OBJECT_NAME": "COSMOS 2251 DEB", "OBJECT_ID": "1993-036AEU", "EPOCH": "2025-12-17T08:25:56.536320", "MEAN_MOTION": 14.48719971, "ECCENTRICITY": 0.00264856, "INCLINATION": 74.0517, "RA_OF_ASC_NODE": 119.8335, "ARG_OF_PERICENTER": 246.5412, "MEAN_ANOMALY": 113.2964, "EPHEMERIS_TYPE": 0, "CLASSIFICATION_TYPE": "U", "NORAD_CAT_ID": 34965, "ELEMENT_SET_NO": 999, "REV_AT_EPOCH": 87180, "BSTAR": 0.00029023435, "MEAN_MOTION_DOT": 1.071e-05, "MEAN_MOTION_DDOT": 0}, "tle": {"line1": "1 34965U 93036AEU 25351.35134880  .00001071  00000+0  29023-3 0  9993", "line2": "2 34965  74.0517 119.8335 0026485 246.5412 113.2964 14.48719971871803"}}, "geometry": {"type": "Point", "coordinates": [-64.11719105327468, 11.627736030318388]}}, {"type": "Feature", "properties": {"norad_id": 34967, "name": "COSMOS 2251 DEB", "group": "cosmos-2251-debris", "lat": 0.11065149385800632, "lon": -115.28477070406322, "alt_km": 723.339967258571, "timestamp": "2025-12-17T15:50:10.177488+00:00", "meta": {"OBJECT_NAME": "COSMOS 2251 DEB", "OBJECT_ID": "1993-036AEW", "EPOCH": "2025-12-13T00:27:20.673792", "MEAN_MOTION": 14.44269018, "ECCENTRICITY": 0.00380101, "INCLINATION": 73.9933, "RA_OF_ASC_NODE": 253.3374, "ARG_OF_PERICENTER": 39.5345, "MEAN_ANOMALY": 320.8573, "EPHEMERIS_TYPE": 0, "CLASSIFICATION_TYPE": "U", "NORAD_CAT_ID": 34967, "ELEMENT_SET_NO": 999, "REV_AT_EPOCH": 64961, "BSTAR": 0.0011451852, "MEAN_MOTION_DOT": 3.946e-05, "MEAN_MOTION_DDOT": 0}, "tle": {"line1": "1 34967U 93036AEW 25347.01898928  .00003946  00000+0  11452-2 0  9992", "line2": "2 34967  73.9933 253.3374 0038010  39.5345 320.8573 14.44269018649616"}}, "geometry": {"type": "Point", "coordinates": [-115.28477070406322, 0.11065149385800632]}}, {"type": "Feature", "properties": {"norad_id": 34968, "name": "COSMOS 2251 DEB", "group": "cosmos-2251-debris", "lat": 52.39906416026932, "lon": 35.87547709978159, "alt_km": 726.9885040838217, "timestamp": "2025-12-17T15:50:10.177498+00:00", "meta": {"OBJECT_NAME": "COSMOS 2251 DEB", "OBJECT_ID": "1993-036AEX", "EPOCH": "2025-12-16T09:39:30.495456", "MEAN_MOTION": 14.59413267, "ECCENTRICITY": 0.00867772, "INCLINATION": 74.0387, "RA_OF_ASC_NODE": 240.0877, "ARG_OF_PERICENTER": 359.5068, "MEAN_ANOMALY": 0.5996, "EPHEMERIS_TYPE": 0, "CLASSIFICATION_TYPE": "U", "NORAD_CAT_ID": 34968, "ELEMENT_SET_NO": 999, "REV_AT_EPOCH": 88531, "BSTAR": 0.00013974875, "MEAN_MOTION_DOT": 6.65e-06, "MEAN_MOTION_DDOT": 0}, "tle": {"line1": "1 34968U 93036AEX 25350.40243629  .00000665  00000+0  13975-3 0  9990", "line2": "2 34968  74.0387 240.0877 0086777 359.5068   0.5996 14.59413267885316"}}, "geometry": {"type": "Point", "coordinates": [35.87547709978159, 52.39906416026932]}}, {"type": "Feature", "properties": {"norad_id": 34969, "name": "COSMOS 2251 DEB", "group": "cosmos-2251-debris", "lat": 73.70560976690214, "lon": 115.43974555576578, "alt_km": 744.8851641002666, "timestamp": "2025-12-17T15:50:10.177509+00:00", "meta": {"OBJECT_NAME": "COSMOS 2251 DEB", "OBJECT_ID": "1993-036AEY", "EPOCH": "2025-12-15T18:08:26.126880", "MEAN_MOTION": 14.32260529, "ECCENTRICITY": 0.00734759, "INCLINATION": 74.0142, "RA_OF_ASC_NODE": 17.6317, "ARG_OF_PERICENTER": 150.1137, "MEAN_ANOMALY": 210.4241, "EPHEMERIS_TYPE": 0, "CLASSIFICATION_TYPE": "U", "NORAD_CAT_ID": 34969, "ELEMENT_SET_NO": 999, "REV_AT_EPOCH": 65180, "BSTAR": 0.00024953546, "MEAN_MOTION_DOT": 6.68e-06, "MEAN_MOTION_DDOT": 0}, "tle": {"line1": "1 34969U 93036AEY 25349.75585795  .00000668  00000+0  24954-3 0  9992", "line2": "2 34969  74.0142  17.6317 0073475 150.1137 210.4241 14.32260529651808"}}, "geometry": {"type": "Point", "coordinates": [115.43974555576578, 73.70560976690214]}}, {"type": "Feature", "properties": {"norad_id": 34971, "name": "COSMOS 2251 DEB", "group": "cosmos-2251-debris", "lat": 57.27316693510386, "lon": 69.09520851969033, "alt_km": 655.501372226252, "timestamp": "2025-12-17T15:50:10.177554+00:00", "meta": {"OBJECT_NAME": "COSMOS 2251 DEB", "OBJECT_ID": "1993-036AFA", "EPOCH": "2025-12-16T13:44:10.461120", "MEAN_MOTION": 14.55639723, "ECCENTRICITY": 0.00694632, "INCLINATION": 73.9787, "RA_OF_ASC_NODE": 277.721, "ARG_OF_PERICENTER": 142.4374, "MEAN_ANOMALY": 40.2269, "EPHEMERIS_TYPE": 0, "CLASSIFICATION_TYPE": "U", "NORAD_CAT_ID": 34971, "ELEMENT_SET_NO": 999, "REV_AT_EPOCH": 66228, "BSTAR": 0.00015151629, "MEAN_MOTION_DOT": 6.53e-06, "MEAN_MOTION_DDOT": 0}, "tle": {"line1": "1 34971U 93036AFA 25350.57234330  .00000653  00000+0  15152-3 0  9997", "line2": "2 34971  73.9787 277.7210 0069463 142.4374  40.2269 14.55639723662288"}}, "geometry": {"type": "Point", "coordinates": [69.09520851969033, 57.27316693510386]}}, {"type": "Feature", "properties": {"norad_id": 34972, "name": "COSMOS 2251 DEB", "group": "cosmos-2251-debris", "lat": -42.66968668169273, "lon": 24.896470763305974, "alt_km": 668.4424483852836, "timestamp": "2025-12-17T15:50:10.177565+00:00", "meta": {"OBJECT_NAME": "COSMOS 2251 DEB", "OBJECT_ID": "1993-036AFB", "EPOCH": "2025-12-17T04:53:43.581696", "MEAN_MOTION": 14.7295587, "ECCENTRICITY": 0.00333157, "INCLINATION": 73.9877, "RA_OF_ASC_NODE": 41.1365, "ARG_OF_PERICENTER": 199.3746, "MEAN_ANOMALY": 219.2483, "EPHEMERIS_TYPE": 0, "CLASSIFICATION_TYPE": "U", "NORAD_CAT_ID": 34972, "ELEMENT_SET_NO": 999, "REV_AT_EPOCH": 87716, "BSTAR": 0.00095788275, "MEAN_MOTION_DOT": 6.173e-05, "MEAN_MOTION_DDOT": 0}, "tle": {"line1": "1 34972U 93036AFB 25351.20397664  .00006173  00000+0  95788-3 0  9995", "line2": "2 34972  73.9877  41.1365 0033315 199.3746 219.2483 14.72955870877168"}}, "geometry": {"type": "Point", "coordinates": [24.896470763305974, -42.66968668169273]}}, {"type": "Feature", "properties": {"norad_id": 34976, "name": "COSMOS 2251 DEB", "group": "cosmos-2251-debris", "lat": 61.11895721418552, "lon": 85.4057720234363, "alt_km": 655.9427617997098, "timestamp": "2025-12-17T15:50:10.177575+00:00", "meta": {"OBJECT_NAME": "COSMOS 2251 DEB", "OBJECT_ID": "1993-036AFF", "EPOCH": "2025-12-16T21:41:30.434208", "MEAN_MOTION": 14.76659801, "ECCENTRICITY": 0.00478076, "INCLINATION": 74.0571, "RA_OF_ASC_NODE": 298.0987, "ARG_OF_PERICENTER": 343.9713, "MEAN_ANOMALY": 72.6765, "EPHEMERIS_TYPE": 0, "CLASSIFICATION_TYPE": "U", "NORAD_CAT_ID": 34976, "ELEMENT_SET_NO": 999, "REV_AT_EPOCH": 88335, "BSTAR": 0.0012885114, "MEAN_MOTION_DOT": 9.159e-05, "MEAN_MOTION_DDOT": 0}, "tle": {"line1": "1 34976U 93036AFF 25350.90382447  .00009159  00000+0  12885-2 0  9991", "line2": "2 34976  74.0571 298.0987 0047807 343.9713  72.6765 14.76659801883351"}}, "geometry": {"type": "Point", "coordinates": [85.4057720234363, 61.11895721418552]}}]}